[{"OBJECT_NAME":"STARLINK-3582","OBJECT_ID":"2022-022X","EPOCH":"2026-03-09T22:56:15.036576","MEAN_MOTION":15.17112073,"ECCENTRICITY":0.00019498,"INCLINATION":53.2143,"RA_OF_ASC_NODE":3.953,"ARG_OF_PERICENTER":143.0365,"MEAN_ANOMALY":217.0766,"EPHEMERIS_TYPE":0,"CLASSIFICATION_TYPE":"U","NORAD_CAT_ID":51873,"ELEMENT_SET_NO":999,"REV_AT_EPOCH":22321,"BSTAR":0.0018716326,"MEAN_MOTION_DOT":0.00037432,"MEAN_MOTION_DDOT":0},{"OBJECT_NAME":"OBJECT A","OBJECT_ID":"2025-055A","EPOCH":"2026-03-09T22:20:06.055296","MEAN_MOTION":15.1489582,"ECCENTRICITY":0.00171574,"INCLINATION":97.6376,"RA_OF_ASC_NODE":208.1396,"ARG_OF_PERICENTER":127.0611,"MEAN_ANOMALY":233.2193,"EPHEMERIS_TYPE":0,"CLASSIFICATION_TYPE":"U","NORAD_CAT_ID":63291,"ELEMENT_SET_NO":999,"REV_AT_EPOCH":5401,"BSTAR":0.00072348746,"MEAN_MOTION_DOT":0.00013464,"MEAN_MOTION_DDOT":0}]
